1 45142U 20008M   22365.48900637  .00000429  00000-0  11921-2 0  9992
2 45142  87.8893 287.3387 0001601  63.0534 297.0756 13.10372568142715
1 45142U 20008M   22365.71808030  .00000154  00000-0  40397-3 0  9997
2 45142  87.8893 287.2933 0001610  62.7715 297.3577 13.10372635142740
1 45142U 20008M   23001.02351024  .00000265  00000-0  72227-3 0  9995
2 45142  87.8894 287.2327 0001602  62.7358 297.3933 13.10373149143683
1 45142U 20008M   23001.48165581  .00000318  00000-0  87422-3 0  9998
2 45142  87.8893 287.1418 0001596  62.9790 297.1500 13.10373470142848
1 45142U 20008M   23001.71072861  .00000351  00000-0  96911-3 0  9992
2 45142  87.8894 287.0963 0001585  62.7264 297.4024 13.10373462142873
1 45142U 20008M   23002.47430336  .00000592  00000-0  16608-2 0  9992
2 45142  87.8894 286.9448 0001571  62.8070 297.3217 13.10374398142973
1 45142U 20008M   23002.47430336  .00000592  00000-0  16608-2 0  9992
2 45142  87.8894 286.9448 0001571  62.8070 297.3217 13.10374398143873
1 45142U 20008M   23003.54330847  .00000594  00000-0  16647-2 0  9992
2 45142  87.8895 286.7327 0001564  62.9343 297.1944 13.10374905143110
1 45142U 20008M   23003.54330847  .00000594  00000-0  16647-2 0  9992
2 45142  87.8895 286.7327 0001564  62.9343 297.1944 13.10374905144010
1 45142U 20008M   23004.53595339  .00000668  00000-0  18776-2 0  9998
2 45142  87.8896 286.5358 0001540  63.1166 297.0119 13.10376748143247
1 45142U 20008M   23005.14681195  .00000677  00000-0  19028-2 0  9993
2 45142  87.8898 286.4146 0001541  63.3798 296.7487 13.10376855144229
1 45142U 20008M   23005.52859810  .00000632  00000-0  17750-2 0  9997
2 45142  87.8899 286.3388 0001538  63.4793 296.6492 13.10377366143377
1 45142U 20008M   23006.52124069  .00000515  00000-0  14376-2 0  9990
2 45142  87.8901 286.1419 0001496  62.5966 297.5313 13.10378713143503
1 45142U 20008M   23006.52124069  .00000515  00000-0  14376-2 0  9990
2 45142  87.8901 286.1419 0001496  62.5966 297.5313 13.10378713144403
1 45142U 20008M   23007.20845417  .00000466  00000-0  12999-2 0  9997
2 45142  87.8901 286.0056 0001467  62.4345 297.6931 13.10379247143596
1 45142U 20008M   23007.66659660  .00000333  00000-0  91765-3 0  9992
2 45142  87.8901 285.9147 0001455  62.4504 297.6771 13.10379446143659
1 45142U 20008M   23007.66659660  .00000333  00000-0  91765-3 0  9992
2 45142  87.8901 285.9147 0001455  62.4504 297.6771 13.10379446144559
1 45142U 20008M   23008.12473906  .00000245  00000-0  66494-3 0  9994
2 45142  87.8902 285.8238 0001447  62.6392 297.4882 13.10379155143713
1 45142U 20008M   23008.73559447  .00000184  00000-0  49137-3 0  9993
2 45142  87.8902 285.7027 0001432  62.8973 297.2300 13.10379834143794
1 45142U 20008M   23008.73559447  .00000184  00000-0  49137-3 0  9993
2 45142  87.8902 285.7027 0001432  62.8973 297.2300 13.10379834144694
1 45142U 20008M   23009.49916360  .00000059  00000-0  13379-3 0  9998
2 45142  87.8902 285.5512 0001413  63.0369 297.0902 13.10380232143893
1 45142U 20008M   23010.03366324 -.00000204  00000-0 -62008-3 0  9996
2 45142  87.8904 285.4452 0001400  63.0108 297.1162 13.10379703144862
1 45142U 20008M   23010.26273371 -.00000116  00000-0 -36957-3 0  9996
2 45142  87.8903 285.3997 0001443  64.1512 295.9764 13.10379774143997
1 45142U 20008M   23011.25537623 -.00000503  00000-0 -14773-2 0  9990
2 45142  87.8898 285.2027 0001399  64.4130 295.7141 13.10378060144122
1 45142U 20008M   23011.25537623 -.00000503  00000-0 -14773-2 0  9990
2 45142  87.8898 285.2027 0001399  64.4130 295.7141 13.10378060145022
1 45142U 20008M   23011.78987919 -.00000927  00000-0 -26911-2 0  9992
2 45142  87.8898 285.0967 0001398  64.7961 295.3311 13.10375323144198
1 45142U 20008M   23012.70616625 -.00000895  00000-0 -25998-2 0  9996
2 45142  87.8897 284.9150 0001389  65.3054 294.8218 13.10374667144313
1 45142U 20008M   23012.70616625 -.00000895  00000-0 -25998-2 0  9996
2 45142  87.8897 284.9150 0001389  65.3054 294.8218 13.10374667145213
1 45142U 20008M   23013.46974111 -.00000624  00000-0 -18243-2 0  9992
2 45142  87.8896 284.7635 0001370  66.1510 293.9761 13.10371793144415
1 45142U 20008M   23014.15695855 -.00000610  00000-0 -17839-2 0  9999
2 45142  87.8895 284.6270 0001348  66.3441 293.7827 13.10371916145406
1 45142U 20008M   23015.45503864 -.00000471  00000-0 -13850-2 0  9995
2 45142  87.8892 284.3695 0001333  67.3932 292.7336 13.10370391144679
1 45142U 20008M   23015.45503864 -.00000471  00000-0 -13850-2 0  9995
2 45142  87.8892 284.3695 0001333  67.3932 292.7336 13.10370391145579
1 45142U 20008M   23015.76046980 -.00000533  00000-0 -15629-2 0  9995
2 45142  87.8893 284.3089 0001329  67.6063 292.5205 13.10370121144719
1 45142U 20008M   23016.44768946 -.00000360  00000-0 -10685-2 0  9999
2 45142  87.8892 284.1725 0001313  68.0349 292.0918 13.10369600144804
1 45142U 20008M   23016.67676276 -.00000358  00000-0 -10624-2 0  9998
2 45142  87.8892 284.1271 0001311  68.2916 291.8351 13.10369655145731
1 45142U 20008M   23016.75312068 -.00000345  00000-0 -10249-2 0  9992
2 45142  87.8892 284.1119 0001305  68.2073 291.9193 13.10369431144847
1 45142U 20008M   23017.44034073 -.00000136  00000-0 -42505-3 0  9995
2 45142  87.8890 283.9756 0001287  68.2893 291.8371 13.10369397144936
1 45142U 20008M   23018.12756172 -.00000087  00000-0 -28440-3 0  9999
2 45142  87.8889 283.8392 0001268  68.6569 291.4693 13.10368958145927
1 45142U 20008M   23018.43299239  .00000079  00000-0  19073-3 0  9990
2 45142  87.8888 283.7786 0001273  69.1130 291.0134 13.10369715145061
1 45142U 20008M   23019.42564590  .00000252  00000-0  68667-3 0  9991
2 45142  87.8887 283.5817 0001306  70.1727 289.9541 13.10368399145193
1 45142U 20008M   23019.42564590  .00000252  00000-0  68667-3 0  9991
2 45142  87.8887 283.5817 0001306  70.1727 289.9541 13.10368399146093
1 45142U 20008M   23020.41829676  .00000351  00000-0  97031-3 0  9998
2 45142  87.8890 283.3845 0001259  70.1725 289.9538 13.10370076145327
1 45142U 20008M   23020.72372796  .00000384  00000-0  10649-2 0  9993
2 45142  87.8888 283.3239 0001258  70.2091 289.9172 13.10370191146263
1 45142U 20008M   23022.40359730  .00000645  00000-0  18104-2 0  9997
2 45142  87.8889 282.9905 0001229  72.7565 287.3697 13.10371552146480
1 45142U 20008M   23023.47260267  .00000696  00000-0  19563-2 0  9997
2 45142  87.8890 282.7784 0001208  72.6821 287.4438 13.10373063146625
1 45142U 20008M   23024.77067860  .00000560  00000-0  15687-2 0  9998
2 45142  87.8892 282.5208 0001205  73.5022 286.6238 13.10374957146796
1 45142U 20008M   23025.45789447  .00000530  00000-0  14808-2 0  9997
2 45142  87.8890 282.3843 0001222  75.1844 284.9418 13.10375379145986
1 45142U 20008M   23025.76332372  .00000435  00000-0  12092-2 0  9999
2 45142  87.8891 282.3234 0001186  77.0962 283.0298 13.10375456146020
1 45142U 20008M   23026.14511001  .00000328  00000-0  90374-3 0  9991
2 45142  87.8890 282.2480 0001210  74.5997 285.5264 13.10375968146072
1 45142U 20008M   23026.14511001  .00000328  00000-0  90374-3 0  9991
2 45142  87.8890 282.2480 0001210  74.5997 285.5264 13.10375968146971
1 45142U 20008M   23027.21411069  .00000277  00000-0  75737-3 0  9992
2 45142  87.8888 282.0359 0001192  75.5400 284.5860 13.10375990146213
1 45142U 20008M   23027.21411069  .00000277  00000-0  75737-3 0  9992
2 45142  87.8888 282.0359 0001192  75.5400 284.5860 13.10375990147113
1 45142U 20008M   23027.74861073  .00000054  00000-0  11970-3 0  9996
2 45142  87.8888 281.9299 0001187  76.2466 283.8794 13.10376733146289
1 45142U 20008M   23028.20675373  .00000020  00000-0  21077-4 0  9997
2 45142  87.8888 281.8387 0001189  75.8606 284.2654 13.10376502146340
1 45142U 20008M   23028.74125408 -.00000065  00000-0 -22211-3 0  9996
2 45142  87.8887 281.7325 0001197  76.1073 284.0188 13.10376073146412
1 45142U 20008M   23028.74125408 -.00000065  00000-0 -22211-3 0  9996
2 45142  87.8887 281.7325 0001197  76.1073 284.0188 13.10376073147312
1 45142U 20008M   23029.96296929 -.00000336  00000-0 -99847-3 0  9998
2 45142  87.8885 281.4897 0001210  77.5469 282.5793 13.10375779146575
1 45142U 20008M   23030.11568394 -.00000394  00000-0 -11657-2 0  9991
2 45142  87.8884 281.4594 0001200  77.7759 282.3503 13.10375518147491
1 45142U 20008M   23030.19204119 -.00000402  00000-0 -11883-2 0  9992
2 45142  87.8884 281.4443 0001200  77.9218 282.2044 13.10375482146607
1 45142U 20008M   23030.95561414 -.00000514  00000-0 -15098-2 0  9996
2 45142  87.8882 281.2928 0001203  79.4305 280.6957 13.10374753146704
1 45142U 20008M   23031.10832848 -.00000499  00000-0 -14652-2 0  9993
2 45142  87.8882 281.2625 0001199  79.7038 280.4224 13.10374896146723
1 45142U 20008M   23031.94825974 -.00000616  00000-0 -18006-2 0  9995
2 45142  87.8880 281.0960 0001205  81.5456 278.5808 13.10373925146834
